{"type": "FeatureCollection", "features": [ {"type": "Feature", "properties": {"norad_id": 41549, "name": "GSAT0211 (GALILEO 14)", "group": "gnss", "lat": 7.350404925297035, "lon": -127.81463162116009, "alt_km": 23210.047437486533, "timestamp": "2025-12-05T05:43:15.352035+00:00", "meta": {"OBJECT_NAME": "GSAT0211 (GALILEO 14)", "OBJECT_ID": "2016-030A", "EPOCH": "2025-12-01T16:54:04.942368", "MEAN_MOTION": 1.70472896, "ECCENTRICITY": 0.00038995, "INCLINATION": 55.1563, "RA_OF_ASC_NODE": 227.1275, "ARG_OF_PERICENTER": 10.5053, "MEAN_ANOMALY": 349.5828, "EPHEMERIS_TYPE": 0, "CLASSIFICATION_TYPE": "U", "NORAD_CAT_ID": 41549, "ELEMENT_SET_NO": 999, "REV_AT_EPOCH": 5930, "BSTAR": 0, "MEAN_MOTION_DOT": 3.3e-07, "MEAN_MOTION_DDOT": 0}, "tle": {"line1": "1 41549U 16030A   25335.70422387  .00000033  00000+0  00000+0 0  9998", "line2": "2 41549  55.1563 227.1275 0003899  10.5053 349.5828  1.70472896 59309"}}, "geometry": {"type": "Point", "coordinates": [-127.81463162116009, 7.350404925297035]}}, {"type": "Feature", "properties": {"norad_id": 41550, "name": "GSAT0210 (GALILEO 13)", "group": "gnss", "lat": -25.0088970409451, "lon": 65.97395960496345, "alt_km": 23222.020252143844, "timestamp": "2025-12-05T05:43:15.352046+00:00", "meta": {"OBJECT_NAME": "GSAT0210 (GALILEO 13)", "OBJECT_ID": "2016-030B", "EPOCH": "2025-12-04T07:23:32.472672", "MEAN_MOTION": 1.70473512, "ECCENTRICITY": 0.0001419, "INCLINATION": 55.1546, "RA_OF_ASC_NODE": 227.0538, "ARG_OF_PERICENTER": 244.2228, "MEAN_ANOMALY": 115.8568, "EPHEMERIS_TYPE": 0, "CLASSIFICATION_TYPE": "U", "NORAD_CAT_ID": 41550, "ELEMENT_SET_NO": 999, "REV_AT_EPOCH": 5934, "BSTAR": 0, "MEAN_MOTION_DOT": 4e-07, "MEAN_MOTION_DDOT": 0}, "tle": {"line1": "1 41550U 16030B   25338.30801473  .00000040  00000+0  00000+0 0  9994", "line2": "2 41550  55.1546 227.0538 0001419 244.2228 115.8568  1.70473512 59344"}}, "geometry": {"type": "Point", "coordinates": [65.97395960496345, -25.0088970409451]}}, {"type": "Feature", "properties": {"norad_id": 41586, "name": "BEIDOU-2 G7 (C03)", "group": "gnss", "lat": -0.6986266872260909, "lon": -89.44168891459624, "alt_km": 35804.11383060778, "timestamp": "2025-12-05T05:43:15.352075+00:00", "meta": {"OBJECT_NAME": "BEIDOU-2 G7 (C03)", "OBJECT_ID": "2016-037A", "EPOCH": "2025-12-03T19:25:06.201984", "MEAN_MOTION": 1.00271395, "ECCENTRICITY": 0.00043865, "INCLINATION": 1.7336, "RA_OF_ASC_NODE": 67.6984, "ARG_OF_PERICENTER": 4.1798, "MEAN_ANOMALY": 42.7772, "EPHEMERIS_TYPE": 0, "CLASSIFICATION_TYPE": "U", "NORAD_CAT_ID": 41586, "ELEMENT_SET_NO": 999, "REV_AT_EPOCH": 493, "BSTAR": 0, "MEAN_MOTION_DOT": -3.37e-06, "MEAN_MOTION_DDOT": 0}, "tle": {"line1": "1 41586U 16037A   25337.80909956 -.00000337  00000+0  00000+0 0  9999", "line2": "2 41586   1.7336  67.6984 0004386   4.1798  42.7772  1.00271395  4939"}}, "geometry": {"type": "Point", "coordinates": [-89.44168891459624, -0.6986266872260909]}}, {"type": "Feature", "properties": {"norad_id": 41589, "name": "EUTELSAT 117 WEST B (WAAS/PRN 131)", "group": "gnss", "lat": -0.018130234697257754, "lon": 43.087582522142796, "alt_km": 35785.993435042554, "timestamp": "2025-12-05T05:43:15.352091+00:00", "meta": {"OBJECT_NAME": "EUTELSAT 117 WEST B (WAAS/PRN 131)", "OBJECT_ID": "2016-038B", "EPOCH": "2025-12-04T10:48:15.329952", "MEAN_MOTION": 1.00269296, "ECCENTRICITY": 2.1e-05, "INCLINATION": 0.0071, "RA_OF_ASC_NODE": 152.5773, "ARG_OF_PERICENTER": 282.2107, "MEAN_ANOMALY": 43.7985, "EPHEMERIS_TYPE": 0, "CLASSIFICATION_TYPE": "U", "NORAD_CAT_ID": 41589, "ELEMENT_SET_NO": 999, "REV_AT_EPOCH": 3471, "BSTAR": 0, "MEAN_MOTION_DOT": 4e-08, "MEAN_MOTION_DDOT": 0}, "tle": {"line1": "1 41589U 16038B   25338.45017743  .00000004  00000+0  00000+0 0  9999", "line2": "2 41589   0.0071 152.5773 0000210 282.2107  43.7985  1.00269296 34718"}}, "geometry": {"type": "Point", "coordinates": [43.087582522142796, -0.018130234697257754]}}, {"type": "Feature", "properties": {"norad_id": 41859, "name": "GSAT0207 (GALILEO 15)", "group": "gnss", "lat": 32.101635050766944, "lon": 132.10295738018488, "alt_km": 23216.55910117891, "timestamp": "2025-12-05T05:43:15.352104+00:00", "meta": {"OBJECT_NAME": "GSAT0207 (GALILEO 15)", "OBJECT_ID": "2016-069A", "EPOCH": "2025-12-03T23:59:33.819072", "MEAN_MOTION": 1.70474248, "ECCENTRICITY": 0.0002136, "INCLINATION": 55.3774, "RA_OF_ASC_NODE": 106.4923, "ARG_OF_PERICENTER": 325.6107, "MEAN_ANOMALY": 34.3288, "EPHEMERIS_TYPE": 0, "CLASSIFICATION_TYPE": "U", "NORAD_CAT_ID": 41859, "ELEMENT_SET_NO": 999, "REV_AT_EPOCH": 5607, "BSTAR": 0, "MEAN_MOTION_DOT": 1.5e-07, "MEAN_MOTION_DDOT": 0}, "tle": {"line1": "1 41859U 16069A   25337.99969698  .00000015  00000+0  00000+0 0  9998", "line2": "2 41859  55.3774 106.4923 0002136 325.6107  34.3288  1.70474248 56074"}}, "geometry": {"type": "Point", "coordinates": [132.10295738018488, 32.101635050766944]}}, {"type": "Feature", "properties": {"norad_id": 41860, "name": "GSAT0212 (GALILEO 16)", "group": "gnss", "lat": 39.018512409910294, "lon": -107.58317319165907, "alt_km": 23218.087241872414, "timestamp": "2025-12-05T05:43:15.352125+00:00", "meta": {"OBJECT_NAME": "GSAT0212 (GALILEO 16)", "OBJECT_ID": "2016-069B", "EPOCH": "2025-12-02T16:19:30.905184", "MEAN_MOTION": 1.70474418, "ECCENTRICITY": 0.00022458, "INCLINATION": 55.3738, "RA_OF_ASC_NODE": 106.5243, "ARG_OF_PERICENTER": 34.2432, "MEAN_ANOMALY": 325.7313, "EPHEMERIS_TYPE": 0, "CLASSIFICATION_TYPE": "U", "NORAD_CAT_ID": 41860, "ELEMENT_SET_NO": 999, "REV_AT_EPOCH": 5630, "BSTAR": 0, "MEAN_MOTION_DOT": 2.7e-07, "MEAN_MOTION_DDOT": 0}, "tle": {"line1": "1 41860U 16069B   25336.68021881  .00000027  00000+0  00000+0 0  9991", "line2": "2 41860  55.3738 106.5243 0002245  34.2432 325.7313  1.70474418 56308"}}, "geometry": {"type": "Point", "coordinates": [-107.58317319165907, 39.018512409910294]}}, {"type": "Feature", "properties": {"norad_id": 41861, "name": "GSAT0213 (GALILEO 17)", "group": "gnss", "lat": -54.98861593334761, "lon": 6.680249283225485, "alt_km": 23222.256052972843, "timestamp": "2025-12-05T05:43:15.352137+00:00", "meta": {"OBJECT_NAME": "GSAT0213 (GALILEO 17)", "OBJECT_ID": "2016-069C", "EPOCH": "2025-12-01T20:59:28.954752", "MEAN_MOTION": 1.70474717, "ECCENTRICITY": 0.00020626, "INCLINATION": 55.3756, "RA_OF_ASC_NODE": 106.5542, "ARG_OF_PERICENTER": 284.0381, "MEAN_ANOMALY": 75.9044, "EPHEMERIS_TYPE": 0, "CLASSIFICATION_TYPE": "U", "NORAD_CAT_ID": 41861, "ELEMENT_SET_NO": 999, "REV_AT_EPOCH": 5615, "BSTAR": 0, "MEAN_MOTION_DOT": 3.5e-07, "MEAN_MOTION_DDOT": 0}, "tle": {"line1": "1 41861U 16069C   25335.87464068  .00000035  00000+0  00000+0 0  9999", "line2": "2 41861  55.3756 106.5542 0002062 284.0381  75.9044  1.70474717 56156"}}, "geometry": {"type": "Point", "coordinates": [6.680249283225485, -54.98861593334761]}}, {"type": "Feature", "properties": {"norad_id": 41862, "name": "GSAT0214 (GALILEO 18)", "group": "gnss", "lat": 4.240636261104026, "lon": -76.49869970528606, "alt_km": 23223.306253747913, "timestamp": "2025-12-05T05:43:15.352148+00:00", "meta": {"OBJECT_NAME": "GSAT0214 (GALILEO 18)", "OBJECT_ID": "2016-069D", "EPOCH": "2025-12-02T14:34:22.700352", "MEAN_MOTION": 1.70474512, "ECCENTRICITY": 0.0001109, "INCLINATION": 55.3745, "RA_OF_ASC_NODE": 106.5268, "ARG_OF_PERICENTER": 291.2976, "MEAN_ANOMALY": 68.6511, "EPHEMERIS_TYPE": 0, "CLASSIFICATION_TYPE": "U", "NORAD_CAT_ID": 41862, "ELEMENT_SET_NO": 999, "REV_AT_EPOCH": 5629, "BSTAR": 0, "MEAN_MOTION_DOT": 2.8e-07, "MEAN_MOTION_DDOT": 0}, "tle": {"line1": "1 41862U 16069D   25336.60720718  .00000028  00000+0  00000+0 0  9991", "line2": "2 41862  55.3745 106.5268 0001109 291.2976  68.6511  1.70474512 56297"}}, "geometry": {"type": "Point", "coordinates": [-76.49869970528606, 4.240636261104026]}}, {"type": "Feature", "properties": {"norad_id": 42709, "name": "SES-15 (WAAS/PRN 133)", "group": "gnss", "lat": 0.0356124457345843, "lon": 30.912740975017897, "alt_km": 35788.03962824864, "timestamp": "2025-12-05T05:43:15.352160+00:00", "meta": {"OBJECT_NAME": "SES-15 (WAAS/PRN 133)", "OBJECT_ID": "2017-026A", "EPOCH": "2025-12-04T09:41:16.878912", "MEAN_MOTION": 1.00268217, "ECCENTRICITY": 4.5e-05, "INCLINATION": 0.0196, "RA_OF_ASC_NODE": 344.9042, "ARG_OF_PERICENTER": 283.4852, "MEAN_ANOMALY": 181.2308, "EPHEMERIS_TYPE": 0, "CLASSIFICATION_TYPE": "U", "NORAD_CAT_ID": 42709, "ELEMENT_SET_NO": 999, "REV_AT_EPOCH": 548, "BSTAR": 0, "MEAN_MOTION_DOT": 7.5e-07, "MEAN_MOTION_DDOT": 0}, "tle": {"line1": "1 42709U 17026A   25338.40366758  .00000075  00000+0  00000+0 0  9998", "line2": "2 42709   0.0196 344.9042 0000450 283.4852 181.2308  1.00268217  5484"}}, "geometry": {"type": "Point", "coordinates": [30.912740975017897, 0.0356124457345843]}}, {"type": "Feature", "properties": {"norad_id": 42738, "name": "QZS-2 (QZSS/PRN 194)", "group": "gnss", "lat": 33.64811342991764, "lon": -60.885102462947785, "alt_km": 38492.03976116426, "timestamp": "2025-12-05T05:43:15.352199+00:00", "meta": {"OBJECT_NAME": "QZS-2 (QZSS/PRN 194)", "OBJECT_ID": "2017-028A", "EPOCH": "2025-12-04T14:21:45.952128", "MEAN_MOTION": 1.00285177, "ECCENTRICITY": 0.0758839, "INCLINATION": 39.7274, "RA_OF_ASC_NODE": 246.0027, "ARG_OF_PERICENTER": 269.3925, "MEAN_ANOMALY": 275.2021, "EPHEMERIS_TYPE": 0, "CLASSIFICATION_TYPE": "U", "NORAD_CAT_ID": 42738, "ELEMENT_SET_NO": 999, "REV_AT_EPOCH": 567, "BSTAR": 0, "MEAN_MOTION_DOT": -1.53e-06, "MEAN_MOTION_DDOT": 0}, "tle": {"line1": "1 42738U 17028A   25338.59844852 -.00000153  00000+0  00000+0 0  9996", "line2": "2 42738  39.7274 246.0027 0758839 269.3925 275.2021  1.00285177  5673"}}, "geometry": {"type": "Point", "coordinates": [-60.885102462947785, 33.64811342991764]}}]}